start=new Date('2022-04-14T00:00:00.000Z').valueOf();
sats=[{"ECCENTRICITY":"0.00017830","DECAY_DATE":null,"REF_FRAME":"TEME","TLE_LINE2":"2 47845  53.0535 174.2401 0001783  41.0733 319.0390 15.06404167 61294","BSTAR":"0.00050023000000","CENTER_NAME":"EARTH","EPHEMERIS_TYPE":"0","INCLINATION":"53.0535","EPOCH":"2022-04-13T10:56:47.377824","SITE":"AFETR","LAUNCH_DATE":"2021-03-11","MEAN_MOTION_DDOT":"0.0000000000000","CLASSIFICATION_TYPE":"U","APOAPSIS":"548.436","GP_ID":"201149583","RCS_SIZE":"LARGE","RA_OF_ASC_NODE":"174.2401","TIME_SYSTEM":"UTC","NORAD_CAT_ID":"47845","OBJECT_TYPE":"PAYLOAD","COUNTRY_CODE":"US","REV_AT_EPOCH":"6129","MEAN_ANOMALY":"319.0390","OBJECT_NAME":"STARLINK-2453","MEAN_MOTION_DOT":"0.00007178","TLE_LINE1":"1 47845U 21018BL  22103.45610391  .00007178  00000-0  50023-3 0  9993","PERIAPSIS":"545.966","PERIOD":"95.592","SEMIMAJOR_AXIS":"6925.336","ARG_OF_PERICENTER":"41.0733","OBJECT_ID":"2021-018BL","FILE":"3400190","MEAN_MOTION":"15.06404167","MEAN_ELEMENT_THEORY":"SGP4","ELEMENT_SET_NO":"999"},{"INCLINATION":"53.0539","MEAN_MOTION_DDOT":"0.0000000000000","CLASSIFICATION_TYPE":"U","EPOCH":"2022-04-13T12:26:59.909280","LAUNCH_DATE":"2021-03-11","SITE":"AFETR","TLE_LINE2":"2 47846  53.0539 173.9571 0001762  53.0953 307.0197 15.06396578 61699","BSTAR":"0.00058976000000","EPHEMERIS_TYPE":"0","CENTER_NAME":"EARTH","DECAY_DATE":null,"ECCENTRICITY":"0.00017620","REF_FRAME":"TEME","TLE_LINE1":"1 47846U 21018BM  22103.51874895  .00008513  00000-0  58976-3 0  9991","MEAN_MOTION_DOT":"0.00008513","MEAN_ANOMALY":"307.0197","OBJECT_NAME":"STARLINK-2456","MEAN_ELEMENT_THEORY":"SGP4","MEAN_MOTION":"15.06396578","ELEMENT_SET_NO":"999","ARG_OF_PERICENTER":"53.0953","OBJECT_ID":"2021-018BM","PERIOD":"95.592","PERIAPSIS":"546.004","SEMIMAJOR_AXIS":"6925.359","FILE":"3399963","RA_OF_ASC_NODE":"173.9571","TIME_SYSTEM":"UTC","OBJECT_TYPE":"PAYLOAD","NORAD_CAT_ID":"47846","APOAPSIS":"548.444","RCS_SIZE":"LARGE","GP_ID":"201141194","REV_AT_EPOCH":"6169","COUNTRY_CODE":"US"},{"EPOCH":"2022-04-13T14:09:11.490912","LAUNCH_DATE":"2021-03-14","SITE":"AFETR","MEAN_MOTION_DDOT":"0.0000000000000","CLASSIFICATION_TYPE":"U","INCLINATION":"53.0522","DECAY_DATE":null,"ECCENTRICITY":"0.00018290","REF_FRAME":"TEME","TLE_LINE2":"2 47860  53.0522 203.6378 0001829  56.2743 303.8420 15.06396477 61005","BSTAR":"0.00089084000000","EPHEMERIS_TYPE":"0","CENTER_NAME":"EARTH","ARG_OF_PERICENTER":"56.2743","OBJECT_ID":"2021-021A","PERIOD":"95.592","PERIAPSIS":"545.958","SEMIMAJOR_AXIS":"6925.359","FILE":"3400454","MEAN_ELEMENT_THEORY":"SGP4","MEAN_MOTION":"15.06396477","ELEMENT_SET_NO":"999","MEAN_MOTION_DOT":"0.00013011","OBJECT_NAME":"STARLINK-2258","MEAN_ANOMALY":"303.8420","TLE_LINE1":"1 47860U 21021A   22103.58971633  .00013011  00000-0  89084-3 0  9999","COUNTRY_CODE":"US","REV_AT_EPOCH":"6100","APOAPSIS":"548.491","RCS_SIZE":"LARGE","GP_ID":"201175745","TIME_SYSTEM":"UTC","RA_OF_ASC_NODE":"203.6378","OBJECT_TYPE":"PAYLOAD","NORAD_CAT_ID":"47860"},{"MEAN_MOTION_DOT":"0.00010669","OBJECT_NAME":"STARLINK-2280","MEAN_ANOMALY":"296.4995","TLE_LINE1":"1 47861U 21021B   22103.74037255  .00010669  00000-0  73391-3 0  9991","FILE":"3400454","ARG_OF_PERICENTER":"63.6165","OBJECT_ID":"2021-021B","SEMIMAJOR_AXIS":"6925.322","PERIAPSIS":"546.030","PERIOD":"95.592","ELEMENT_SET_NO":"999","MEAN_ELEMENT_THEORY":"SGP4","MEAN_MOTION":"15.06408686","RCS_SIZE":"LARGE","GP_ID":"201174493","APOAPSIS":"548.343","OBJECT_TYPE":"PAYLOAD","NORAD_CAT_ID":"47861","RA_OF_ASC_NODE":"187.9611","TIME_SYSTEM":"UTC","COUNTRY_CODE":"US","REV_AT_EPOCH":"6134","INCLINATION":"53.0523","LAUNCH_DATE":"2021-03-14","SITE":"AFETR","EPOCH":"2022-04-13T17:46:08.188320","CLASSIFICATION_TYPE":"U","MEAN_MOTION_DDOT":"0.0000000000000","REF_FRAME":"TEME","DECAY_DATE":null,"ECCENTRICITY":"0.00016700","EPHEMERIS_TYPE":"0","CENTER_NAME":"EARTH","TLE_LINE2":"2 47861  53.0523 187.9611 0001670  63.6165 296.4995 15.06408686 61342","BSTAR":"0.00073391000000"},{"CENTER_NAME":"EARTH","EPHEMERIS_TYPE":"0","TLE_LINE2":"2 47862  53.0537 183.9482 0001542  54.6132 305.5001 15.06411302 61374","BSTAR":"0.00163360000000","REF_FRAME":"TEME","DECAY_DATE":null,"ECCENTRICITY":"0.00015420","CLASSIFICATION_TYPE":"U","MEAN_MOTION_DDOT":"0.0000000000000","SITE":"AFETR","LAUNCH_DATE":"2021-03-14","EPOCH":"2022-04-13T12:30:59.366016","INCLINATION":"53.0537","REV_AT_EPOCH":"6137","COUNTRY_CODE":"US","NORAD_CAT_ID":"47862","OBJECT_TYPE":"PAYLOAD","RA_OF_ASC_NODE":"183.9482","TIME_SYSTEM":"UTC","GP_ID":"201141690","RCS_SIZE":"LARGE","APOAPSIS":"548.247","ELEMENT_SET_NO":"999","MEAN_MOTION":"15.06411302","MEAN_ELEMENT_THEORY":"SGP4","FILE":"3399963","SEMIMAJOR_AXIS":"6925.314","PERIAPSIS":"546.111","PERIOD":"95.591","ARG_OF_PERICENTER":"54.6132","OBJECT_ID":"2021-021C","TLE_LINE1":"1 47862U 21021C   22103.52152044  .00024142  00000-0  16336-2 0  9998","OBJECT_NAME":"STARLINK-2291","MEAN_ANOMALY":"305.5001","MEAN_MOTION_DOT":"0.00024142"},{"INCLINATION":"53.0555","SITE":"AFETR","LAUNCH_DATE":"2021-03-14","EPOCH":"2022-04-13T13:06:48.858048","CLASSIFICATION_TYPE":"U","MEAN_MOTION_DDOT":"0.0000000000000","REF_FRAME":"TEME","ECCENTRICITY":"0.00015120","DECAY_DATE":null,"CENTER_NAME":"EARTH","EPHEMERIS_TYPE":"0","TLE_LINE2":"2 47863  53.0555 193.8356 0001512  55.5473 304.5659 15.06389892 61242","BSTAR":"0.00019199000000","OBJECT_NAME":"STARLINK-2293","MEAN_ANOMALY":"304.5659","MEAN_MOTION_DOT":"0.00002579","TLE_LINE1":"1 47863U 21021D   22103.54639882  .00002579  00000-0  19199-3 0  9992","FILE":"3399963","PERIAPSIS":"546.197","SEMIMAJOR_AXIS":"6925.380","PERIOD":"95.593","ARG_OF_PERICENTER":"55.5473","OBJECT_ID":"2021-021D","ELEMENT_SET_NO":"999","MEAN_MOTION":"15.06389892","MEAN_ELEMENT_THEORY":"SGP4","GP_ID":"201142440","RCS_SIZE":"LARGE","APOAPSIS":"548.292","NORAD_CAT_ID":"47863","OBJECT_TYPE":"PAYLOAD","TIME_SYSTEM":"UTC","RA_OF_ASC_NODE":"193.8356","COUNTRY_CODE":"US","REV_AT_EPOCH":"6124"},{"INCLINATION":"53.0534","EPOCH":"2022-04-13T17:16:15.140352","LAUNCH_DATE":"2021-03-14","SITE":"AFETR","MEAN_MOTION_DDOT":"0.0000000000000","CLASSIFICATION_TYPE":"U","DECAY_DATE":null,"ECCENTRICITY":"0.00014800","REF_FRAME":"TEME","TLE_LINE2":"2 47864  53.0534 183.0595 0001480  47.9804 312.1310 15.06389139 61381","BSTAR":"0.00025335000000","EPHEMERIS_TYPE":"0","CENTER_NAME":"EARTH","MEAN_MOTION_DOT":"0.00003493","OBJECT_NAME":"STARLINK-2304","MEAN_ANOMALY":"312.1310","TLE_LINE1":"1 47864U 21021E   22103.71961968  .00003493  00000-0  25335-3 0  9990","ARG_OF_PERICENTER":"47.9804","OBJECT_ID":"2021-021E","SEMIMAJOR_AXIS":"6925.382","PERIAPSIS":"546.222","PERIOD":"95.593","FILE":"3400454","MEAN_ELEMENT_THEORY":"SGP4","MEAN_MOTION":"15.06389139","ELEMENT_SET_NO":"999","APOAPSIS":"548.272","RCS_SIZE":"LARGE","GP_ID":"201175245","TIME_SYSTEM":"UTC","RA_OF_ASC_NODE":"183.0595","OBJECT_TYPE":"PAYLOAD","NORAD_CAT_ID":"47864","COUNTRY_CODE":"US","REV_AT_EPOCH":"6138"},{"BSTAR":"0.00134220000000","TLE_LINE2":"2 47865  53.0543 193.0380 0001596  58.0728 302.0416 15.06421064 61379","CENTER_NAME":"EARTH","EPHEMERIS_TYPE":"0","DECAY_DATE":null,"ECCENTRICITY":"0.00015960","REF_FRAME":"TEME","MEAN_MOTION_DDOT":"0.0000000000000","CLASSIFICATION_TYPE":"U","EPOCH":"2022-04-13T17:16:17.086944","SITE":"AFETR","LAUNCH_DATE":"2021-03-14","INCLINATION":"53.0543","REV_AT_EPOCH":"6137","COUNTRY_CODE":"US","TIME_SYSTEM":"UTC","RA_OF_ASC_NODE":"193.0380","NORAD_CAT_ID":"47865","OBJECT_TYPE":"PAYLOAD","APOAPSIS":"548.254","GP_ID":"201173993","RCS_SIZE":"LARGE","MEAN_MOTION":"15.06421064","MEAN_ELEMENT_THEORY":"SGP4","ELEMENT_SET_NO":"999","PERIOD":"95.591","PERIAPSIS":"546.044","SEMIMAJOR_AXIS":"6925.284","ARG_OF_PERICENTER":"58.0728","OBJECT_ID":"2021-021F","FILE":"3400454","TLE_LINE1":"1 47865U 21021F   22103.71964221  .00019778  00000-0  13422-2 0  9992","MEAN_ANOMALY":"302.0416","OBJECT_NAME":"STARLINK-2310","MEAN_MOTION_DOT":"0.00019778"},{"PERIOD":"95.591","PERIAPSIS":"545.825","SEMIMAJOR_AXIS":"6925.304","ARG_OF_PERICENTER":"46.4957","OBJECT_ID":"2021-021G","FILE":"3400454","MEAN_MOTION":"15.06414581","MEAN_ELEMENT_THEORY":"SGP4","ELEMENT_SET_NO":"999","MEAN_ANOMALY":"313.6194","OBJECT_NAME":"STARLINK-2320","MEAN_MOTION_DOT":"0.00017434","TLE_LINE1":"1 47866U 21021G   22103.72332558  .00017434  00000-0  11859-2 0  9995","COUNTRY_CODE":"US","REV_AT_EPOCH":"6142","APOAPSIS":"548.513","GP_ID":"201174243","RCS_SIZE":"LARGE","RA_OF_ASC_NODE":"193.0424","TIME_SYSTEM":"UTC","NORAD_CAT_ID":"47866","OBJECT_TYPE":"PAYLOAD","EPOCH":"2022-04-13T17:21:35.330112","SITE":"AFETR","LAUNCH_DATE":"2021-03-14","MEAN_MOTION_DDOT":"0.0000000000000","CLASSIFICATION_TYPE":"U","INCLINATION":"53.0552","DECAY_DATE":null,"ECCENTRICITY":"0.00019410","REF_FRAME":"TEME","TLE_LINE2":"2 47866  53.0552 193.0424 0001941  46.4957 313.6194 15.06414581 61421","BSTAR":"0.00118590000000","CENTER_NAME":"EARTH","EPHEMERIS_TYPE":"0"},{"INCLINATION":"53.0555","EPOCH":"2022-04-13T17:12:17.563680","SITE":"AFETR","LAUNCH_DATE":"2021-03-14","MEAN_MOTION_DDOT":"0.0000000000000","CLASSIFICATION_TYPE":"U","ECCENTRICITY":"0.00017150","DECAY_DATE":null,"REF_FRAME":"TEME","BSTAR":"0.00101220000000","TLE_LINE2":"2 47867  53.0555 183.0545 0001715  50.4628 309.6512 15.06419002 61362","CENTER_NAME":"EARTH","EPHEMERIS_TYPE":"0","OBJECT_NAME":"STARLINK-2321","MEAN_ANOMALY":"309.6512","MEAN_MOTION_DOT":"0.00014835","TLE_LINE1":"1 47867U 21021H   22103.71686995  .00014835  00000-0  10122-2 0  9996","PERIOD":"95.591","PERIAPSIS":"545.968","SEMIMAJOR_AXIS":"6925.290","OBJECT_ID":"2021-021H","ARG_OF_PERICENTER":"50.4628","FILE":"3400454","MEAN_MOTION":"15.06419002","MEAN_ELEMENT_THEORY":"SGP4","ELEMENT_SET_NO":"999","APOAPSIS":"548.343","GP_ID":"201175495","RCS_SIZE":"LARGE","RA_OF_ASC_NODE":"183.0545","TIME_SYSTEM":"UTC","NORAD_CAT_ID":"47867","OBJECT_TYPE":"PAYLOAD","COUNTRY_CODE":"US","REV_AT_EPOCH":"6136"}];
